{
  "type": "FeatureCollection",
  "features": [
    {
      "type": "Feature",
      "properties": {
        "norad_id": 55973,
        "name": "TIANMU-1 03",
        "group": "weather",
        "lat": -44.02710200779292,
        "lon": 152.85648021088295,
        "alt_km": 451.9990402772528,
        "timestamp": "2025-12-08T23:34:03.612757+00:00",
        "meta_object_name": "TIANMU-1 03",
        "meta_object_id": "2023-039A",
        "meta_epoch": "2025-12-08T14:24:30.008448",
        "meta_mean_motion": 15.40739263,
        "meta_eccentricity": 0.00045176,
        "meta_inclination": 97.5111,
        "meta_ra_of_asc_node": 145.1371,
        "meta_arg_of_pericenter": 73.128,
        "meta_mean_anomaly": 287.0461,
        "meta_ephemeris_type": 0,
        "meta_classification_type": "U",
        "meta_norad_cat_id": 55973,
        "meta_element_set_no": 999,
        "meta_rev_at_epoch": 15142,
        "meta_bstar": 0.00049168257,
        "meta_mean_motion_dot": 0.00020047,
        "meta_mean_motion_ddot": 0,
        "tle_line1": "1 55973U 23039A   25342.60034732  .00020047  00000+0  49168-3 0  9990",
        "tle_line2": "2 55973  97.5111 145.1371 0004517  73.1280 287.0461 15.40739263151426"
      },
      "geometry": {
        "type": "Point",
        "coordinates": [
          152.85648021088295,
          -44.02710200779292
        ]
      }
    },
    {
      "type": "Feature",
      "properties": {
        "norad_id": 55974,
        "name": "TIANMU-1 04",
        "group": "weather",
        "lat": 63.98531221187758,
        "lon": 129.0515005869178,
        "alt_km": 433.1522645964551,
        "timestamp": "2025-12-08T23:34:03.612776+00:00",
        "meta_object_name": "TIANMU-1 04",
        "meta_object_id": "2023-039B",
        "meta_epoch": "2025-12-08T13:56:11.817312",
        "meta_mean_motion": 15.41072862,
        "meta_eccentricity": 0.00051778,
        "meta_inclination": 97.5043,
        "meta_ra_of_asc_node": 144.3096,
        "meta_arg_of_pericenter": 68.4966,
        "meta_mean_anomaly": 291.6831,
        "meta_ephemeris_type": 0,
        "meta_classification_type": "U",
        "meta_norad_cat_id": 55974,
        "meta_element_set_no": 999,
        "meta_rev_at_epoch": 15142,
        "meta_bstar": 0.00049373363,
        "meta_mean_motion_dot": 0.00020357,
        "meta_mean_motion_ddot": 0,
        "tle_line1": "1 55974U 23039B   25342.58069233  .00020357  00000+0  49373-3 0  9994",
        "tle_line2": "2 55974  97.5043 144.3096 0005177  68.4966 291.6831 15.41072862151425"
      },
      "geometry": {
        "type": "Point",
        "coordinates": [
          129.0515005869178,
          63.98531221187758
        ]
      }
    },
    {
      "type": "Feature",
      "properties": {
        "norad_id": 55975,
        "name": "TIANMU-1 05",
        "group": "weather",
        "lat": 75.78413445385043,
        "lon": -3.4086272794987234,
        "alt_km": 433.94152866390505,
        "timestamp": "2025-12-08T23:34:03.612787+00:00",
        "meta_object_name": "TIANMU-1 05",
        "meta_object_id": "2023-039C",
        "meta_epoch": "2025-12-08T13:46:26.587776",
        "meta_mean_motion": 15.40696628,
        "meta_eccentricity": 0.00043725,
        "meta_inclination": 97.5089,
        "meta_ra_of_asc_node": 144.7948,
        "meta_arg_of_pericenter": 89.6603,
        "meta_mean_anomaly": 270.5144,
        "meta_ephemeris_type": 0,
        "meta_classification_type": "U",
        "meta_norad_cat_id": 55975,
        "meta_element_set_no": 999,
        "meta_rev_at_epoch": 15140,
        "meta_bstar": 0.0004898633,
        "meta_mean_motion_dot": 0.00019943,
        "meta_mean_motion_ddot": 0,
        "tle_line1": "1 55975U 23039C   25342.57391884  .00019943  00000+0  48986-3 0  9992",
        "tle_line2": "2 55975  97.5089 144.7948 0004372  89.6603 270.5144 15.40696628151407"
      },
      "geometry": {
        "type": "Point",
        "coordinates": [
          -3.4086272794987234,
          75.78413445385043
        ]
      }
    },
    {
      "type": "Feature",
      "properties": {
        "norad_id": 55976,
        "name": "TIANMU-1 06",
        "group": "weather",
        "lat": 51.577159606142715,
        "lon": 136.1025276880851,
        "alt_km": 435.28243731703515,
        "timestamp": "2025-12-08T23:34:03.612799+00:00",
        "meta_object_name": "TIANMU-1 06",
        "meta_object_id": "2023-039D",
        "meta_epoch": "2025-12-08T13:59:31.886880",
        "meta_mean_motion": 15.41125489,
        "meta_eccentricity": 0.00046902,
        "meta_inclination": 97.5101,
        "meta_ra_of_asc_node": 145.2659,
        "meta_arg_of_pericenter": 85.1101,
        "meta_mean_anomaly": 275.068,
        "meta_ephemeris_type": 0,
        "meta_classification_type": "U",
        "meta_norad_cat_id": 55976,
        "meta_element_set_no": 999,
        "meta_rev_at_epoch": 15142,
        "meta_bstar": 0.00049460333,
        "meta_mean_motion_dot": 0.00020427,
        "meta_mean_motion_ddot": 0,
        "tle_line1": "1 55976U 23039D   25342.58300795  .00020427  00000+0  49460-3 0  9992",
        "tle_line2": "2 55976  97.5101 145.2659 0004690  85.1101 275.0680 15.41125489151425"
      },
      "geometry": {
        "type": "Point",
        "coordinates": [
          136.1025276880851,
          51.577159606142715
        ]
      }
    },
    {
      "type": "Feature",
      "properties": {
        "norad_id": 56232,
        "name": "FENGYUN 3G",
        "group": "weather",
        "lat": -43.44877052364792,
        "lon": -165.8708862363957,
        "alt_km": 417.31442218634584,
        "timestamp": "2025-12-08T23:34:03.612815+00:00",
        "meta_object_name": "FENGYUN 3G",
        "meta_object_id": "2023-055A",
        "meta_epoch": "2025-12-08T11:29:27.474144",
        "meta_mean_motion": 15.53264614,
        "meta_eccentricity": 0.00092233,
        "meta_inclination": 49.9938,
        "meta_ra_of_asc_node": 249.4374,
        "meta_arg_of_pericenter": 128.3635,
        "meta_mean_anomaly": 231.8163,
        "meta_ephemeris_type": 0,
        "meta_classification_type": "U",
        "meta_norad_cat_id": 56232,
        "meta_element_set_no": 999,
        "meta_rev_at_epoch": 15036,
        "meta_bstar": 0.00059541133,
        "meta_mean_motion_dot": 0.00038023,
        "meta_mean_motion_ddot": 0,
        "tle_line1": "1 56232U 23055A   25342.47879021  .00038023  00000+0  59541-3 0  9999",
        "tle_line2": "2 56232  49.9938 249.4374 0009223 128.3635 231.8163 15.53264614150365"
      },
      "geometry": {
        "type": "Point",
        "coordinates": [
          -165.8708862363957,
          -43.44877052364792
        ]
      }
    },
    {
      "type": "Feature",
      "properties": {
        "norad_id": 57166,
        "name": "METEOR-M2 3",
        "group": "weather",
        "lat": 71.95263557776651,
        "lon": 8.776121379468506,
        "alt_km": 803.106276959893,
        "timestamp": "2025-12-08T23:34:03.612825+00:00",
        "meta_object_name": "METEOR-M2 3",
        "meta_object_id": "2023-091A",
        "meta_epoch": "2025-12-08T14:47:22.797312",
        "meta_mean_motion": 14.2402544,
        "meta_eccentricity": 0.00041408,
        "meta_inclination": 98.6384,
        "meta_ra_of_asc_node": 36.2275,
        "meta_arg_of_pericenter": 20.2037,
        "meta_mean_anomaly": 339.9305,
        "meta_ephemeris_type": 0,
        "meta_classification_type": "U",
        "meta_norad_cat_id": 57166,
        "meta_element_set_no": 999,
        "meta_rev_at_epoch": 12739,
        "meta_bstar": 4.4478567e-05,
        "meta_mean_motion_dot": 5.9e-07,
        "meta_mean_motion_ddot": 0,
        "tle_line1": "1 57166U 23091A   25342.61623608  .00000059  00000+0  44479-4 0  9993",
        "tle_line2": "2 57166  98.6384  36.2275 0004140  20.2037 339.9305 14.24025440127393"
      },
      "geometry": {
        "type": "Point",
        "coordinates": [
          8.776121379468506,
          71.95263557776651
        ]
      }
    },
    {
      "type": "Feature",
      "properties": {
        "norad_id": 57399,
        "name": "TIANMU-1 07",
        "group": "weather",
        "lat": -62.57365792723686,
        "lon": 47.19175295211427,
        "alt_km": 492.52743553253003,
        "timestamp": "2025-12-08T23:34:03.612835+00:00",
        "meta_object_name": "TIANMU-1 07",
        "meta_object_id": "2023-101A",
        "meta_epoch": "2025-12-08T14:24:54.079488",
        "meta_mean_motion": 15.27980669,
        "meta_eccentricity": 0.00056386,
        "meta_inclination": 97.2877,
        "meta_ra_of_asc_node": 32.5418,
        "meta_arg_of_pericenter": 91.9641,
        "meta_mean_anomaly": 268.2244,
        "meta_ephemeris_type": 0,
        "meta_classification_type": "U",
        "meta_norad_cat_id": 57399,
        "meta_element_set_no": 999,
        "meta_rev_at_epoch": 13252,
        "meta_bstar": 0.00037265809,
        "meta_mean_motion_dot": 0.00010109,
        "meta_mean_motion_ddot": 0,
        "tle_line1": "1 57399U 23101A   25342.60062592  .00010109  00000+0  37266-3 0  9993",
        "tle_line2": "2 57399  97.2877  32.5418 0005638  91.9641 268.2244 15.27980669132524"
      },
      "geometry": {
        "type": "Point",
        "coordinates": [
          47.19175295211427,
          -62.57365792723686
        ]
      }
    }
  ]
}